NUSAT-1 (FRESCO)        
1 41557U 16033B   22224.50582019  .00012280  00000+0  35388-3 0  9999
2 41557  97.3900 322.3467 0011166 169.0886 319.6177 15.35814699345986
BEESAT-4                
1 41619U 16040W   22223.70781764  .00009792  00000+0  31521-3 0  9994
2 41619  97.2127 272.8971 0007261 278.2553  81.7866 15.32389051329181
CAS-2T & KS-1Q          
1 41847U 16066G   22223.77546543  .00000573  00000+0  94977-4 0  9999
2 41847  98.5477 288.3755 0364246  44.5497 318.4366 14.38684760302308
NAYIF-1 (EO-88)         
1 42017U 17008BX  22223.70018649  .00011911  00000+0  34047-3 0  9999
2 42017  97.2660 289.0588 0005889  61.6348 298.5489 15.36118883305551
ZHUHAI-1 02 (CAS-4B)    
1 42759U 17034B   22224.53162759  .00003134  00000+0  19077-3 0  9999
2 42759  43.0179  23.5189 0010758 283.7290 184.8751 15.12229511284842
ZHUHAI-1 01 (CAS-4A)    
1 42761U 17034D   22224.56633694  .00003429  00000+0  20700-3 0  9998
2 42761  43.0187  22.0719 0010936 285.6044 194.8495 15.12318642284854
MAX VALIER SAT          
1 42778U 17036P   22223.68274041  .00005659  00000+0  21106-3 0  9995
2 42778  97.2014 262.9014 0012406 125.3139 234.9263 15.27731819285338
RADFXSAT (FOX-1B)       
1 43017U 17073E   22224.22564863  .00004633  00000+0  34807-3 0  9991
2 43017  97.6680 116.1288 0247732   5.5713 354.8165 14.81765183255374
FOX-1D (AO-92)          
1 43137U 18004AC  22223.75832468  .00007420  00000+0  25587-3 0  9997
2 43137  97.3669 298.4425 0008305 155.4892 204.6746 15.30254883254799
DIWATA-2B               
1 43678U 18084H   22224.17294552  .00000291  00000+0  34270-4 0  9997
2 43678  97.9779 358.1159 0011194  99.1994 261.0480 14.92245419206164
ES'HAIL 2               
1 43700U 18090A   22224.04520694  .00000126  00000+0  00000+0 0  9991
2 43700   0.0219 114.4081 0001941  61.6006 186.5297  1.00268313 13838
FOX-1CLIFF (AO-95)      
1 43770U 18099N   22224.42008258  .00001633  00000+0  14780-3 0  9994
2 43770  97.6179 289.3148 0015703  88.2477 272.0543 14.96659802201386
ITASAT 1                
1 43786U 18099AE  22223.73996838  .00002069  00000+0  18534-3 0  9999
2 43786  97.6207 289.6003 0016573  84.3605 275.9506 14.96772366201320
JY1SAT (JO-97)          
1 43803U 18099AX  22224.13955455  .00002935  00000+0  25721-3 0  9992
2 43803  97.6173 289.7612 0016561  82.4972 277.8131 14.97321286201408
UWE-4                   
1 43880U 18111E   22224.43289200  .00002464  00000+0  21108-3 0  9995
2 43880  97.6647 129.7640 0013482 125.1270 235.1218 14.98409416196081
NEXUS (FO-99)           
1 43937U 19003F   22224.36811939  .00011887  00000+0  38693-3 0  9997
2 43937  97.1269 255.5757 0018282 317.4855  42.4971 15.31839621198534
PSAT2 (NO-104)          
1 44354U 19036R   22224.10123085  .00050319 -59494-5  40400-3 0  9997
2 44354  28.5253 150.9250 0212116 240.8274 117.0949 15.44977544173270
JAISAT-1                
1 44419U 19038F   22223.88519665  .00006693  00000+0  33095-3 0  9998
2 44419  97.6390 194.4939 0017211 302.9652  56.9927 15.18046745171464
DUCHIFAT-3              
1 44854U 19089C   22224.11053699  .00002916  00000+0  22783-3 0  9990
2 44854  36.9672 130.3125 0009715 311.8621  48.1382 15.01371030146300
CAS-6 (TIANQIN 1)       
1 44881U 19093C   22224.15467323  .00000345  00000+0  50396-4 0  9998
2 44881  97.8915 302.5623 0015310  10.3173 349.8367 14.81780378143029
RS-44 & BREEZE-KM R/B   
1 44909U 19096E   22223.38760384  .00000000  00000+0 -42886-4 0  9993
2 44909  82.5219 193.7799 0217069 191.0002 168.6313 12.79714206122538
ORBITAL FACTORY 2 (OF-2)
1 45113U 19071C   22223.80687207  .00023140  00000+0  44405-3 0  9990
2 45113  51.6376 146.5116 0009350  24.5931 335.5501 15.47831351141948
HUSKYSAT-1 (HO-107)     
1 45119U 19071J   22223.78630815  .00019614  00000+0  39418-3 0  9995
2 45119  51.6382 147.0947 0009264  20.2653 339.8701 15.46602668141920
BY70-2                  
1 45857U 20042B   22224.40226496  .00004724  00000+0  62531-3 0  9998
2 45857  97.9539 300.7282 0008935 298.7402  61.2970 14.80374035113737
SALSAT                  
1 46495U 20068K   22223.49459554  .00001455  00000+0  10749-3 0  9998
2 46495  97.7316 164.8250 0018387  91.0648 269.2685 15.04699901102469
BY70-3                  
1 46839U 20079N   22224.47827846  .00023489  00000+0  51480-3 0  9992
2 46839  97.1957 295.9098 0006664 123.0297   5.4312 15.44069023 98880
RADFXSAT-2 (AO-109)     
1 47311U 21002C   22224.24010367  .00008257  00000+0  32591-3 0  9990
2 47311  60.6855 152.1261 0026543  18.3855 341.8187 15.26020352 86985
UVSQ-SAT                
1 47438U 21006AB  22223.65975089  .00004320  00000+0  22649-3 0  9999
2 47438  97.4338 281.5439 0013391  85.5041 274.7722 15.16217787 85643
DIY-1 (ARDUIQUBE)       
1 47963U 21022AH  22223.65818377  .00011433  00000+0  61578-3 0  9993
2 47963  97.5270 124.4175 0014559 307.4658  52.5249 15.14889170 75308
XW-3 (CAS-9)            
1 50466U 21131B   22224.23464332  .00000067  00000+0  36444-4 0  9995
2 50466  98.5789 301.4583 0004104 359.3987   0.7194 14.38514220 32934
TEVEL-3                 
1 50988U 22002E   22224.18098907  .00005907  00000+0  31948-3 0  9998
2 50988  97.4778 290.2459 0008354 225.5337 190.9120 15.15012157 31859
TEVEL-8                 
1 50989U 22002F   22224.46539174  .00006632  00000+0  35868-3 0  9997
2 50989  97.4801 290.5501 0008608 219.9167 268.3708 15.14966937 31897
TEVEL-5                 
1 50998U 22002Q   22224.46142661  .00006310  00000+0  33623-3 0  9998
2 50998  97.4777 290.6452 0010143 218.6788 269.9009 15.15505406 31901
TEVEL-6                 
1 50999U 22002R   22224.18389378  .00006097  00000+0  32498-3 0  9997
2 50999  97.4776 290.3706 0010083 218.8032 199.3075 15.15504851 31864
TEVEL-1                 
1 51013U 22002AF  22224.46152425  .00006189  00000+0  33475-3 0  9995
2 51013  97.4789 290.5009 0008438 222.7201 265.8469 15.14991849 31892
TEVEL-7                 
1 51062U 22002CG  22224.46355144  .00005958  00000+0  32275-3 0  9992
2 51062  97.4799 290.5335 0008713 219.5907 249.6704 15.14954166 31895
TEVEL-4                 
1 51063U 22002CH  22224.46743638  .00005925  00000+0  32105-3 0  9998
2 51063  97.4805 290.5340 0008688 219.5399 266.6800 15.14945024 31895
TEVEL-2                 
1 51069U 22002CP  22224.18287605  .00005968  00000+0  32284-3 0  9995
2 51069  97.4774 290.2325 0008463 224.3643 195.4043 15.15004953 31855
RS4S                    
1 53306U 98067TR  22224.46089971  .00036904  00000+0  61916-3 0  9990
2 53306  51.6418  57.7207 0003327 117.9001 242.2326 15.51438299  3399
RS3S                    
1 53308U 98067TT  22224.46035957  .00035435  00000+0  59451-3 0  9996
2 53308  51.6416  57.7171 0003051 110.2909 249.8408 15.51459204  3456
RS1S                    
1 53309U 98067TU  22224.52433594  .00035736  00000+0  59838-3 0  9996
2 53309  51.6414  57.3934 0003716 123.6966 236.4379 15.51508283  3414
RS5S                    
1 53310U 98067TV  22224.52431497  .00034045  00000+0  57117-3 0  9998
2 53310  51.6418  57.3942 0003385 125.0684 235.0623 15.51478894  3448
RS6S                    
1 53311U 98067TW  22224.52342142  .00037829  00000+0  63066-3 0  9990
2 53311  51.6412  57.3874 0002796 104.9527 255.1772 15.51606204  3462
RS9S                    
1 53312U 98067TX  22224.45918977  .00036369  00000+0  60779-3 0  9994
2 53312  51.6417  57.7083 0003911 126.0201 234.1151 15.51553939  3394
RS12S                   
1 53313U 98067TY  22224.45860820  .00037680  00000+0  62824-3 0  9998
2 53313  51.6416  57.7051 0003433 130.4432 229.6857 15.51603686  3446
RS29S (SXC3-2110 CYCLO*)
1 53373U 22096D   22224.40993414  .00006776  00000+0  27907-3 0  9999
2 53373  97.4383 125.8553 0002674 125.4654 347.8547 15.24432324   471
RS32S (SXC3-212 MONITO*)
1 53374U 22096E   22224.47388340  .00006738  00000+0  27665-3 0  9992
2 53374  97.4393 125.9213 0002930 120.1559 345.0693 15.24536087   482
RS34S (SXC3-218 KUZBAS*)
1 53375U 22096F   22224.14598796  .00006782  00000+0  27823-3 0  9990
2 53375  97.4391 125.5932 0003144 124.2118 342.8778 15.24561298   435
RS23S (SXC3-21 UTMN)    
1 53376U 22096G   22224.14629052  .00005872  00000+0  24111-3 0  9997
2 53376  97.4377 125.5950 0003075 126.1461 342.9233 15.24590011   437
RS28S (SXC3-214 MIET-A*)
1 53377U 22096H   22224.47041035  .00005836  00000+0  23938-3 0  9999
2 53377  97.4388 125.9158 0003173 120.7677 326.4950 15.24628048   482
RS26S (KAI-1)           
1 53378U 22096J   22224.47409265  .00005236  00000+0  21480-3 0  9997
2 53378  97.4380 125.9193 0003256 115.3230 352.6340 15.24669550   488
RS19S (SXC3-219 ISOI)   
1 53381U 22096M   22224.41076596  .00006167  00000+0  24941-3 0  9991
2 53381  97.4381 125.8577 0006160  85.4344  39.6093 15.25065755   472
RS21S (CUBESX-HSE-2)    
1 53383U 22096P   22224.41083088  .00005784  00000+0  23369-3 0  9994
2 53383  97.4382 125.8587 0006453  83.0581  43.0518 15.25128011   474
RS30S (SXC3-217 SIREN)  
1 53384U 22096Q   22224.27829306  .00005969  00000+0  24086-3 0  9992
2 53384  97.4382 125.7283 0006443  82.8522  36.3277 15.25154090   459
RS20S (GEOSCAN-EDELVEIS)
1 53385U 22096R   22224.41049620  .00006614  00000+0  26544-3 0  9991
2 53385  97.4381 125.8602 0006990  83.6020  42.4707 15.25290941   502
RS33S (SXC3-215 VIZARD) 
1 53386U 22096S   22224.47178782  .00009211  00000+0  36614-3 0  9995
2 53386  97.4378 125.9226 0007760  83.1789  21.4664 15.25495083   508
